[{"OBJECT_NAME":"STARLINK-5798","OBJECT_ID":"2023-042BG","EPOCH":"2026-03-09T22:00:01.999584","MEAN_MOTION":15.108097,"ECCENTRICITY":8.899e-5,"INCLINATION":43.001,"RA_OF_ASC_NODE":28.4818,"ARG_OF_PERICENTER":317.5399,"MEAN_ANOMALY":205.8685,"EPHEMERIS_TYPE":0,"CLASSIFICATION_TYPE":"U","NORAD_CAT_ID":56040,"ELEMENT_SET_NO":999,"REV_AT_EPOCH":568,"BSTAR":0.0025740213,"MEAN_MOTION_DOT":0.00043558,"MEAN_MOTION_DDOT":0},{"OBJECT_NAME":"OBJECT B","OBJECT_ID":"2025-226B","EPOCH":"2026-03-09T23:02:31.139232","MEAN_MOTION":15.09715314,"ECCENTRICITY":0.00204156,"INCLINATION":97.6443,"RA_OF_ASC_NODE":147.8366,"ARG_OF_PERICENTER":114.3969,"MEAN_ANOMALY":245.9393,"EPHEMERIS_TYPE":0,"CLASSIFICATION_TYPE":"U","NORAD_CAT_ID":65939,"ELEMENT_SET_NO":999,"REV_AT_EPOCH":2260,"BSTAR":0.00038297064,"MEAN_MOTION_DOT":6.14e-5,"MEAN_MOTION_DDOT":0}]
